[{"OBJECT_NAME":"QUICK3","OBJECT_ID":"2025-135AG","EPOCH":"2026-03-09T21:40:49.946304","MEAN_MOTION":15.24606762,"ECCENTRICITY":0.00063908,"INCLINATION":97.4614,"RA_OF_ASC_NODE":185.4931,"ARG_OF_PERICENTER":144.4818,"MEAN_ANOMALY":215.6846,"EPHEMERIS_TYPE":0,"CLASSIFICATION_TYPE":"U","NORAD_CAT_ID":64558,"ELEMENT_SET_NO":999,"REV_AT_EPOCH":3971,"BSTAR":0.00070513701,"MEAN_MOTION_DOT":0.00017352,"MEAN_MOTION_DDOT":0},{"OBJECT_NAME":"HORS 5","OBJECT_ID":"2025-313AM","EPOCH":"2026-03-09T21:29:36.364128","MEAN_MOTION":15.22460599,"ECCENTRICITY":0.00102591,"INCLINATION":97.4003,"RA_OF_ASC_NODE":145.2415,"ARG_OF_PERICENTER":355.2078,"MEAN_ANOMALY":4.9058,"EPHEMERIS_TYPE":0,"CLASSIFICATION_TYPE":"U","NORAD_CAT_ID":67283,"ELEMENT_SET_NO":999,"REV_AT_EPOCH":1085,"BSTAR":0.0004492473,"MEAN_MOTION_DOT":0.00010348,"MEAN_MOTION_DDOT":0}]
